start=new Date('2023-06-21T00:00:00.000Z').valueOf();
sats=[{"ECCENTRICITY":"0.00009590","DECAY_DATE":null,"CLASSIFICATION_TYPE":"U","INCLINATION":"53.2151","SITE":"AFETR","REV_AT_EPOCH":"6124","OBJECT_NAME":"STARLINK-4025","REF_FRAME":"TEME","MEAN_ELEMENT_THEORY":"SGP4","RCS_SIZE":"LARGE","PERIAPSIS":"539.148","APOAPSIS":"540.475","NORAD_CAT_ID":"52696","GP_ID":"234394776","SEMIMAJOR_AXIS":"6917.947","OBJECT_ID":"2022-053AS","CENTER_NAME":"EARTH","ELEMENT_SET_NO":"999","EPHEMERIS_TYPE":"0","LAUNCH_DATE":"2022-05-18","EPOCH":"2023-06-20T16:50:50.660736","ARG_OF_PERICENTER":"112.7912","MEAN_ANOMALY":"247.3182","BSTAR":"-0.00026031000000","OBJECT_TYPE":"PAYLOAD","TIME_SYSTEM":"UTC","MEAN_MOTION_DOT":"-0.00004426","MEAN_MOTION":"15.08818355","COUNTRY_CODE":"US","PERIOD":"95.439","TLE_LINE2":"2 52696  53.2151 281.8155 0000959 112.7912 247.3182 15.08818355 61247","FILE":"3938544","RA_OF_ASC_NODE":"281.8155","TLE_LINE1":"1 52696U 22053AS  23171.70197524 -.00004426  00000-0 -26031-3 0  9992","MEAN_MOTION_DDOT":"0.0000000000000"},{"OBJECT_NAME":"STARLINK-4018","REF_FRAME":"TEME","REV_AT_EPOCH":"6118","RCS_SIZE":"LARGE","MEAN_ELEMENT_THEORY":"SGP4","NORAD_CAT_ID":"52697","GP_ID":"234394027","SEMIMAJOR_AXIS":"6917.856","APOAPSIS":"540.293","PERIAPSIS":"539.150","ELEMENT_SET_NO":"999","EPHEMERIS_TYPE":"0","CENTER_NAME":"EARTH","OBJECT_ID":"2022-053AT","ECCENTRICITY":"0.00008260","CLASSIFICATION_TYPE":"U","DECAY_DATE":null,"SITE":"AFETR","INCLINATION":"53.2167","TLE_LINE2":"2 52697  53.2167 286.7734 0000826  96.5635 263.5451 15.08847855 61185","PERIOD":"95.437","COUNTRY_CODE":"US","TLE_LINE1":"1 52697U 22053AT  23171.71164718  .00001241  00000-0  96031-4 0  9991","RA_OF_ASC_NODE":"286.7734","FILE":"3938544","MEAN_MOTION_DDOT":"0.0000000000000","EPOCH":"2023-06-20T17:04:46.316352","ARG_OF_PERICENTER":"96.5635","LAUNCH_DATE":"2022-05-18","MEAN_ANOMALY":"263.5451","MEAN_MOTION_DOT":"0.00001241","TIME_SYSTEM":"UTC","OBJECT_TYPE":"PAYLOAD","BSTAR":"0.00009603100000","MEAN_MOTION":"15.08847855"},{"DECAY_DATE":null,"CLASSIFICATION_TYPE":"U","ECCENTRICITY":"0.00009900","SITE":"AFETR","INCLINATION":"53.2169","RCS_SIZE":"MEDIUM","MEAN_ELEMENT_THEORY":"SGP4","REF_FRAME":"TEME","OBJECT_NAME":"STARLINK-4030","REV_AT_EPOCH":"6117","EPHEMERIS_TYPE":"0","ELEMENT_SET_NO":"999","OBJECT_ID":"2022-053AU","CENTER_NAME":"EARTH","GP_ID":"234393778","NORAD_CAT_ID":"52698","SEMIMAJOR_AXIS":"6917.849","PERIAPSIS":"539.029","APOAPSIS":"540.399","MEAN_ANOMALY":"282.8416","EPOCH":"2023-06-20T17:19:17.401152","ARG_OF_PERICENTER":"77.2687","LAUNCH_DATE":"2022-05-18","MEAN_MOTION":"15.08850320","TIME_SYSTEM":"UTC","MEAN_MOTION_DOT":"0.00000579","OBJECT_TYPE":"PAYLOAD","BSTAR":"0.00005445600000","FILE":"3938544","RA_OF_ASC_NODE":"286.7175","TLE_LINE1":"1 52698U 22053AU  23171.72172918  .00000579  00000-0  54456-4 0  9992","TLE_LINE2":"2 52698  53.2169 286.7175 0000990  77.2687 282.8416 15.08850320 61177","COUNTRY_CODE":"US","PERIOD":"95.437","MEAN_MOTION_DDOT":"0.0000000000000"},{"SITE":"AFETR","INCLINATION":"53.2156","CLASSIFICATION_TYPE":"U","DECAY_DATE":null,"ECCENTRICITY":"0.00009670","ELEMENT_SET_NO":"999","EPHEMERIS_TYPE":"0","CENTER_NAME":"EARTH","OBJECT_ID":"2022-053AV","GP_ID":"234395028","SEMIMAJOR_AXIS":"6917.852","NORAD_CAT_ID":"52699","APOAPSIS":"540.386","PERIAPSIS":"539.048","RCS_SIZE":"LARGE","MEAN_ELEMENT_THEORY":"SGP4","REF_FRAME":"TEME","OBJECT_NAME":"STARLINK-3987","REV_AT_EPOCH":"6133","MEAN_MOTION":"15.08849142","MEAN_MOTION_DOT":"0.00001454","TIME_SYSTEM":"UTC","BSTAR":"0.00010936000000","OBJECT_TYPE":"PAYLOAD","MEAN_ANOMALY":"285.2047","EPOCH":"2023-06-20T16:48:49.578048","ARG_OF_PERICENTER":"74.9052","LAUNCH_DATE":"2022-05-18","MEAN_MOTION_DDOT":"0.0000000000000","TLE_LINE1":"1 52699U 22053AV  23171.70057382  .00001454  00000-0  10936-3 0  9995","RA_OF_ASC_NODE":"276.8520","FILE":"3938544","TLE_LINE2":"2 52699  53.2156 276.8520 0000967  74.9052 285.2047 15.08849142 61337","PERIOD":"95.437","COUNTRY_CODE":"US"},{"ECCENTRICITY":"0.00010950","DECAY_DATE":null,"CLASSIFICATION_TYPE":"U","SITE":"AFETR","INCLINATION":"53.2170","REF_FRAME":"TEME","OBJECT_NAME":"STARLINK-4034","REV_AT_EPOCH":"6119","RCS_SIZE":"LARGE","MEAN_ELEMENT_THEORY":"SGP4","NORAD_CAT_ID":"52700","GP_ID":"234395276","SEMIMAJOR_AXIS":"6917.874","PERIAPSIS":"538.981","APOAPSIS":"540.496","ELEMENT_SET_NO":"999","EPHEMERIS_TYPE":"0","OBJECT_ID":"2022-053AW","CENTER_NAME":"EARTH","EPOCH":"2023-06-20T17:56:19.462272","ARG_OF_PERICENTER":"68.4815","LAUNCH_DATE":"2022-05-18","MEAN_ANOMALY":"291.6294","TIME_SYSTEM":"UTC","MEAN_MOTION_DOT":"0.00001127","OBJECT_TYPE":"PAYLOAD","BSTAR":"0.00008886300000","MEAN_MOTION":"15.08842132","TLE_LINE2":"2 52700  53.2170 286.2520 0001095  68.4815 291.6294 15.08842132 61190","COUNTRY_CODE":"US","PERIOD":"95.437","FILE":"3938544","TLE_LINE1":"1 52700U 22053AW  23171.74744748  .00001127  00000-0  88863-4 0  9993","RA_OF_ASC_NODE":"286.2520","MEAN_MOTION_DDOT":"0.0000000000000"},{"CLASSIFICATION_TYPE":"U","DECAY_DATE":null,"ECCENTRICITY":"0.00009450","INCLINATION":"53.2160","SITE":"AFETR","MEAN_ELEMENT_THEORY":"SGP4","RCS_SIZE":"LARGE","REV_AT_EPOCH":"6140","OBJECT_NAME":"STARLINK-4003","REF_FRAME":"TEME","CENTER_NAME":"EARTH","OBJECT_ID":"2022-053AX","ELEMENT_SET_NO":"999","EPHEMERIS_TYPE":"0","APOAPSIS":"540.431","PERIAPSIS":"539.123","GP_ID":"234393528","NORAD_CAT_ID":"52701","SEMIMAJOR_AXIS":"6917.912","MEAN_ANOMALY":"271.7657","LAUNCH_DATE":"2022-05-18","EPOCH":"2023-06-20T16:20:19.950144","ARG_OF_PERICENTER":"88.3443","MEAN_MOTION":"15.08829715","OBJECT_TYPE":"PAYLOAD","BSTAR":"0.00008159900000","MEAN_MOTION_DOT":"0.00001011","TIME_SYSTEM":"UTC","TLE_LINE1":"1 52701U 22053AX  23171.68078646  .00001011  00000-0  81599-4 0  9995","RA_OF_ASC_NODE":"271.9103","FILE":"3938544","PERIOD":"95.438","COUNTRY_CODE":"US","TLE_LINE2":"2 52701  53.2160 271.9103 0000945  88.3443 271.7657 15.08829715 61407","MEAN_MOTION_DDOT":"0.0000000000000"},{"NORAD_CAT_ID":"52702","GP_ID":"234394278","SEMIMAJOR_AXIS":"6917.852","APOAPSIS":"540.241","PERIAPSIS":"539.194","ELEMENT_SET_NO":"999","EPHEMERIS_TYPE":"0","CENTER_NAME":"EARTH","OBJECT_ID":"2022-053AY","REF_FRAME":"TEME","OBJECT_NAME":"STARLINK-4033","REV_AT_EPOCH":"6118","RCS_SIZE":"LARGE","MEAN_ELEMENT_THEORY":"SGP4","SITE":"AFETR","INCLINATION":"53.2166","ECCENTRICITY":"0.00007570","CLASSIFICATION_TYPE":"U","DECAY_DATE":null,"MEAN_MOTION_DDOT":"0.0000000000000","TLE_LINE2":"2 52702  53.2166 286.8055 0000757  91.9529 268.1549 15.08849147 61187","PERIOD":"95.437","COUNTRY_CODE":"US","TLE_LINE1":"1 52702U 22053AY  23171.71069327  .00002768  00000-0  19190-3 0  9993","RA_OF_ASC_NODE":"286.8055","FILE":"3938544","MEAN_MOTION_DOT":"0.00002768","TIME_SYSTEM":"UTC","OBJECT_TYPE":"PAYLOAD","BSTAR":"0.00019190000000","MEAN_MOTION":"15.08849147","EPOCH":"2023-06-20T17:03:23.898528","ARG_OF_PERICENTER":"91.9529","LAUNCH_DATE":"2022-05-18","MEAN_ANOMALY":"268.1549"},{"REV_AT_EPOCH":"6095","OBJECT_NAME":"STARLINK-4020","REF_FRAME":"TEME","MEAN_ELEMENT_THEORY":"SGP4","RCS_SIZE":"LARGE","APOAPSIS":"540.421","PERIAPSIS":"539.037","NORAD_CAT_ID":"52703","GP_ID":"234367029","SEMIMAJOR_AXIS":"6917.864","CENTER_NAME":"EARTH","OBJECT_ID":"2022-053AZ","EPHEMERIS_TYPE":"0","ELEMENT_SET_NO":"999","ECCENTRICITY":"0.00010000","CLASSIFICATION_TYPE":"U","DECAY_DATE":null,"INCLINATION":"53.2185","SITE":"AFETR","PERIOD":"95.437","COUNTRY_CODE":"US","TLE_LINE2":"2 52703  53.2185 272.5721 0001000  95.4389 264.6717 15.08845334 60952","TLE_LINE1":"1 52703U 22053AZ  23171.53727434  .00001507  00000-0  11271-3 0  9996","RA_OF_ASC_NODE":"272.5721","FILE":"3938349","MEAN_MOTION_DDOT":"0.0000000000000","LAUNCH_DATE":"2022-05-18","EPOCH":"2023-06-20T12:53:40.502976","ARG_OF_PERICENTER":"95.4389","MEAN_ANOMALY":"264.6717","OBJECT_TYPE":"PAYLOAD","BSTAR":"0.00011271000000","TIME_SYSTEM":"UTC","MEAN_MOTION_DOT":"0.00001507","MEAN_MOTION":"15.08845334"},{"GP_ID":"234394777","SEMIMAJOR_AXIS":"6917.842","NORAD_CAT_ID":"52704","PERIAPSIS":"539.017","APOAPSIS":"540.398","EPHEMERIS_TYPE":"0","ELEMENT_SET_NO":"999","OBJECT_ID":"2022-053BA","CENTER_NAME":"EARTH","REF_FRAME":"TEME","OBJECT_NAME":"STARLINK-3999","REV_AT_EPOCH":"6140","RCS_SIZE":"LARGE","MEAN_ELEMENT_THEORY":"SGP4","SITE":"AFETR","INCLINATION":"53.2178","ECCENTRICITY":"0.00009980","DECAY_DATE":null,"CLASSIFICATION_TYPE":"U","MEAN_MOTION_DDOT":"0.0000000000000","TLE_LINE2":"2 52704  53.2178 271.8916 0000998  97.3983 262.7123 15.08852458 61405","COUNTRY_CODE":"US","PERIOD":"95.437","FILE":"3938544","TLE_LINE1":"1 52704U 22053BA  23171.68446170  .00001723  00000-0  12626-3 0  9993","RA_OF_ASC_NODE":"271.8916","TIME_SYSTEM":"UTC","MEAN_MOTION_DOT":"0.00001723","OBJECT_TYPE":"PAYLOAD","BSTAR":"0.00012626000000","MEAN_MOTION":"15.08852458","ARG_OF_PERICENTER":"97.3983","EPOCH":"2023-06-20T16:25:37.490880","LAUNCH_DATE":"2022-05-18","MEAN_ANOMALY":"262.7123"},{"MEAN_ANOMALY":"288.4115","LAUNCH_DATE":"2022-05-18","ARG_OF_PERICENTER":"71.6999","EPOCH":"2023-06-20T19:20:30.601536","MEAN_MOTION":"15.08849839","OBJECT_TYPE":"PAYLOAD","BSTAR":"0.00014565000000","TIME_SYSTEM":"UTC","MEAN_MOTION_DOT":"0.00002032","RA_OF_ASC_NODE":"271.3509","TLE_LINE1":"1 52705U 22053BB  23171.80590974  .00002032  00000-0  14565-3 0  9998","FILE":"3938544","PERIOD":"95.437","COUNTRY_CODE":"US","TLE_LINE2":"2 52705  53.2152 271.3509 0001120  71.6999 288.4115 15.08849839 61428","MEAN_MOTION_DDOT":"0.0000000000000","CLASSIFICATION_TYPE":"U","DECAY_DATE":null,"ECCENTRICITY":"0.00011200","INCLINATION":"53.2152","SITE":"AFETR","MEAN_ELEMENT_THEORY":"SGP4","RCS_SIZE":"LARGE","REV_AT_EPOCH":"6142","OBJECT_NAME":"STARLINK-3844","REF_FRAME":"TEME","CENTER_NAME":"EARTH","OBJECT_ID":"2022-053BB","ELEMENT_SET_NO":"999","EPHEMERIS_TYPE":"0","APOAPSIS":"540.490","PERIAPSIS":"538.941","SEMIMAJOR_AXIS":"6917.850","GP_ID":"234394028","NORAD_CAT_ID":"52705"}];
